{
    "CCSDS_OMM_VERS": "3.0",
    "COMMENT": "GENERATED VIA SPACE-TRACK.ORG API",
    "CREATION_DATE": "2025-05-21T17:16:54",
    "ORIGINATOR": "18 SPCS",
    "OBJECT_NAME": "GALILEO 15 (267)",
    "OBJECT_ID": "2016-069A",
    "CENTER_NAME": "EARTH",
    "REF_FRAME": "TEME",
    "TIME_SYSTEM": "UTC",
    "MEAN_ELEMENT_THEORY": "SGP4",
    "EPOCH": "2025-05-20T21:46:37.731360",
    "MEAN_MOTION": "1.70474125",
    "ECCENTRICITY": "0.00058040",
    "INCLINATION": "55.2632",
    "RA_OF_ASC_NODE": "111.9522",
    "ARG_OF_PERICENTER": "310.6283",
    "MEAN_ANOMALY": "49.2980",
    "EPHEMERIS_TYPE": "0",
    "CLASSIFICATION_TYPE": "U",
    "NORAD_CAT_ID": "41859",
    "ELEMENT_SET_NO": "999",
    "REV_AT_EPOCH": "5271",
    "BSTAR": "0.00000000000000",
    "MEAN_MOTION_DOT": "0.00000062",
    "MEAN_MOTION_DDOT": "0.0000000000000",
    "SEMIMAJOR_AXIS": "29600.306",
    "PERIOD": "844.703",
    "APOAPSIS": "23239.351",
    "PERIAPSIS": "23204.991",
    "OBJECT_TYPE": "PAYLOAD",
    "RCS_SIZE": "LARGE",
    "COUNTRY_CODE": "ESA",
    "LAUNCH_DATE": "2016-11-17",
    "SITE": "FRGUI",
    "DECAY_DATE": null,
    "FILE": "4735227",
    "GP_ID": "288090689",
    "TLE_LINE0": "0 GALILEO 15 (267)",
    "TLE_LINE1": "1 41859U 16069A   25140.90738115  .00000062  00000-0  00000-0 0  9993",
    "TLE_LINE2": "2 41859  55.2632 111.9522 0005804 310.6283  49.2980  1.70474125 52711"
}